     2.100          NAVIGATION                              RINEX VERSION / TYPE
fic2rin                                 03/05/2010 00:11:35 PGM / RUN BY / DATE
                                                            END OF HEADER
24 10  3  4 18  0  0.0  .267582945526D-03  .329691829393D-11  .000000000000D+00
     .960000000000D+02  .756250000000D+02  .460197740512D-08  .253412471331D+01
     .389665365219D-05  .582502258476D-02  .107884407043D-04  .515489630890D+04
     .410400000000D+06  .186264514923D-07  .922628125702D+00  .137835741043D-06
     .949582392775D+00  .164531250000D+03 -.475621304382D+00 -.791425823205D-08
    -.196436753808D-10  .100000000000D+01  .157300000000D+04  .000000000000D+00
     .240000000000D+01  .000000000000D+00 -.139698386192D-08  .960000000000D+02
     .403206000000D+06  .400000000000D+01
26 10  3  4 18  0  0.0 -.244784168899D-04 -.386535248253D-11  .000000000000D+00
     .310000000000D+02 -.671250000000D+02  .394337854326D-08 -.119780157251D+01
    -.320933759212D-05  .193266489077D-01  .595673918724D-05  .515232955551D+04
     .410400000000D+06  .223517417908D-06  .302975461890D+01  .372529029846D-06
     .991447298765D+00  .276281250000D+03  .106384342942D+01 -.796140305296D-08
    -.385016037463D-09  .100000000000D+01  .157300000000D+04  .000000000000D+00
     .240000000000D+01  .000000000000D+00 -.605359673500D-08  .310000000000D+02
     .403206000000D+06  .400000000000D+01
27 10  3  4 18  0  0.0  .131216365844D-03  .329691829393D-11  .000000000000D+00
     .180000000000D+03 -.479062500000D+02  .386337521080D-08  .136313832386D+01
    -.303797423840D-05  .216885355767D-01  .101793557405D-04  .515366634941D+04
     .410400000000D+06  .670552253723D-07 -.232435107775D+01 -.545755028725D-06
     .977646246639D+00  .194531250000D+03 -.145356094509D+01 -.778353850134D-08
     .942896418278D-10  .100000000000D+01  .157300000000D+04  .000000000000D+00
     .240000000000D+01  .000000000000D+00 -.419095158577D-08  .180000000000D+03
     .403206000000D+06  .400000000000D+01
29 10  3  4 18  0  0.0  .102561432868D-03  .295585778076D-11  .000000000000D+00
     .300000000000D+02 -.425000000000D+02  .463912180947D-08 -.170790327232D+01
    -.211037695408D-05  .295878259931D-02  .807084143162D-05  .515378004646D+04
     .410400000000D+06 -.484287738800D-07 -.145306125909D+00  .102445483208D-06
     .960781418345D+00  .223218750000D+03 -.131495331919D+01 -.803819196582D-08
    -.323584907182D-09  .100000000000D+01  .157300000000D+04  .000000000000D+00
     .240000000000D+01  .000000000000D+00 -.884756445885D-08  .300000000000D+02
     .403206000000D+06  .400000000000D+01
30 10  3  4 18  0  0.0  .221597496420D-03  .329691829393D-11  .000000000000D+00
     .470000000000D+02  .152500000000D+02  .478019911448D-08  .289984727110D+01
     .812113285065D-06  .119826269802D-01  .589154660702D-05  .515376565933D+04
     .410400000000D+06  .949949026108D-07 -.126624416120D+01  .372529029846D-08
     .954815199543D+00  .261218750000D+03  .147497047616D+01 -.800426198107D-08
     .398230873629D-09  .100000000000D+01  .157300000000D+04  .000000000000D+00
     .240000000000D+01  .000000000000D+00 -.791624188423D-08  .470000000000D+02
     .403206000000D+06  .400000000000D+01
31 10  3  4 18  0  0.0 -.489116646349D-04  .170530256582D-11  .000000000000D+00
     .410000000000D+02 -.358125000000D+02  .389766235328D-08 -.103770172410D+01
    -.192038714886D-05  .758286705241D-02  .116415321827D-04  .515364188004D+04
     .410400000000D+06 -.102445483208D-06 -.226853196382D+01  .521540641785D-07
     .976077692708D+00  .166843750000D+03 -.108579762390D+01 -.783425489959D-08
     .278583032673D-09  .100000000000D+01  .157300000000D+04  .000000000000D+00
     .240000000000D+01  .000000000000D+00 -.130385160446D-07  .410000000000D+02
     .403206000000D+06  .400000000000D+01
32 10  3  4 18  0  0.0  .819102860987D-04 -.852651282912D-11  .000000000000D+00
     .130000000000D+02  .711250000000D+02  .498127891883D-08 -.204269637427D+00
     .374764204025D-05  .128185910871D-01  .350922346115D-05  .515357974625D+04
     .410400000000D+06 -.115483999252D-06  .200489990783D+01 -.208616256714D-06
     .959852046971D+00  .315531250000D+03 -.101339830116D+01 -.870714840197D-08
     .180721813503D-09  .100000000000D+01  .157300000000D+04  .000000000000D+00
     .240000000000D+01  .000000000000D+00 -.325962901115D-08  .130000000000D+02
     .403206000000D+06  .400000000000D+01
 1 10  3  4 20  0  0.0 -.945962965488D-04 -.397903932026D-11  .000000000000D+00
     .700000000000D+01  .111250000000D+02  .586810157284D-08 -.214827157181D+01
     .599771738052D-06  .437616591807D-02  .626780092716D-05  .515479014587D+04
     .417600000000D+06 -.279396772385D-07 -.122792367604D+01 -.651925802231D-07
     .963504227807D+00  .260875000000D+03  .876411513875D+00 -.803747765035D-08
     .357872049664D-09  .100000000000D+01  .157300000000D+04  .000000000000D+00
     .240000000000D+01  .630000000000D+02 -.190921127796D-07  .700000000000D+01
     .410406000000D+06  .400000000000D+01
 2 10  3  4 20  0  0.0  .232915859669D-03  .397903932026D-11  .000000000000D+00
     .560000000000D+02  .592812500000D+02  .482412951579D-08  .170420366660D+01
     .307522714138D-05  .939223181922D-02  .114180147648D-04  .515379222870D+04
     .417600000000D+06 -.130385160446D-07  .856307801046D+00  .130385160446D-06
     .940322330531D+00  .145656250000D+03  .297997374615D+01 -.808605110220D-08
    -.188579283656D-09  .100000000000D+01  .157300000000D+04  .000000000000D+00
     .240000000000D+01  .000000000000D+00 -.172294676304D-07  .560000000000D+02
     .410406000000D+06  .400000000000D+01
 3 10  3  4 20  0  0.0  .523714814335D-03  .500222085975D-11  .000000000000D+00
     .870000000000D+02 -.475000000000D+02  .556380318331D-08  .156900372696D+01
    -.252947211266D-05  .128812640905D-01  .697560608387D-05  .515369170952D+04
     .417600000000D+06 -.301748514175D-06 -.294534932059D+00 -.596046447754D-07
     .927276171929D+00  .229531250000D+03  .982779367243D+00 -.863678832833D-08
    -.293226499775D-09  .100000000000D+01  .157300000000D+04  .000000000000D+00
     .340000000000D+01  .000000000000D+00 -.419095158577D-08  .870000000000D+02
     .410406000000D+06  .400000000000D+01
 4 10  3  4 20  0  0.0  .289948657155D-04  .886757334229D-11  .000000000000D+00
     .830000000000D+02  .606875000000D+02  .479912847439D-08 -.156607634450D+01
     .300444662571D-05  .911363505293D-02  .111553817987D-04  .515365188026D+04
     .417600000000D+06  .838190317154D-07  .874283582495D+00 -.117346644402D-06
     .939462235642D+00  .146593750000D+03  .597272938792D+00 -.804462080503D-08
     .364300888880D-10  .100000000000D+01  .157300000000D+04  .000000000000D+00
     .240000000000D+01  .000000000000D+00 -.605359673500D-08  .830000000000D+02
     .410406000000D+06  .400000000000D+01
 5 10  3  4 20  0  0.0 -.506220385432D-05  .170530256582D-11  .000000000000D+00
     .840000000000D+02  .780312500000D+02  .489841832450D-08 -.311927574905D+01
     .405497848988D-05  .191684986930D-02  .452063977718D-05  .515366015244D+04
     .417600000000D+06 -.819563865662D-07  .191581178973D+01 -.204890966415D-07
     .959014633163D+00  .292218750000D+03  .346151639725D+00 -.833927593574D-08
     .136077096729D-09  .100000000000D+01  .157300000000D+04  .000000000000D+00
     .240000000000D+01  .000000000000D+00 -.884756445885D-08  .840000000000D+02
     .410406000000D+06  .400000000000D+01
 6 10  3  4 20  0  0.0  .694666989148D-03 -.648014975013D-11  .000000000000D+00
     .730000000000D+02 -.414687500000D+02  .526700510619D-08 -.245835167473D+01
    -.199116766453D-05  .605630862992D-02  .706501305103D-05  .515366139984D+04
     .417600000000D+06  .242143869400D-07 -.224631283195D+00  .875443220139D-07
     .934688068321D+00  .225312500000D+03 -.113224053599D+01 -.828998816843D-08
    -.253581991279D-09  .100000000000D+01  .157300000000D+04  .000000000000D+00
     .240000000000D+01  .000000000000D+00 -.465661287308D-08  .730000000000D+02
     .410406000000D+06  .400000000000D+01
 7 10  3  4 20  0  0.0  .208010897040D-05 -.454747350886D-12  .000000000000D+00
     .300000000000D+02 -.511250000000D+02  .401266714369D-08  .357084654123D-01
    -.280700623989D-05  .326362589840D-02  .107958912849D-04  .515372940063D+04
     .417600000000D+06  .484287738800D-07 -.226778709567D+01  .111758708954D-07
     .970794257272D+00  .176156250000D+03  .306885376123D+01 -.784568394709D-08
     .103218585183D-09  .100000000000D+01  .157300000000D+04  .000000000000D+00
     .240000000000D+01  .000000000000D+00 -.107102096081D-07  .300000000000D+02
     .410406000000D+06  .400000000000D+01
 8 10  3  4 20  0  0.0  .386219471693D-05  .341060513165D-12  .000000000000D+00
     .100000000000D+03 -.449062500000D+02  .353086136026D-08 -.567869956052D+00
    -.246055424213D-05  .109550972702D-01  .105984508991D-04  .515371863937D+04
     .417600000000D+06  .203028321266D-06 -.220162491538D+01 -.130385160446D-06
     .992075796168D+00  .191281250000D+03  .309121306552D+01 -.762353183642D-08
     .184650548579D-09  .100000000000D+01  .157300000000D+04  .000000000000D+00
     .340000000000D+01  .000000000000D+00 -.419095158577D-08  .100000000000D+03
     .410406000000D+06  .400000000000D+01
 9 10  3  4 20  0  0.0  .109586864710D-03  .227373675443D-11  .000000000000D+00
     .240000000000D+02 -.297500000000D+02  .398695178683D-08 -.689876681641D+00
    -.150687992573D-05  .207123039290D-01  .101868063211D-04  .515360783768D+04
     .417600000000D+06 -.249594449997D-06 -.229977892993D+01  .154599547386D-06
     .979613331639D+00  .196906250000D+03  .153193407918D+01 -.812712424163D-08
     .189293599124D-09  .100000000000D+01  .157300000000D+04  .000000000000D+00
     .240000000000D+01  .000000000000D+00 -.558793544769D-08  .240000000000D+02
     .410406000000D+06  .400000000000D+01
